0 COSMOS 1275 DEB
1 18639U 81053ME  13287.26875697  .00000845  00000-0  10401-2 0  1318
2 18639 083.0672 205.9784 0149062 255.5983 261.8068 13.59790761407582
0 COSMOS 1275 DEB
1 18639U 81053ME  13290.21140853  .00000964  00000-0  11888-2 0  1329
2 18639 083.0669 203.8908 0148898 247.4639 266.9504 13.59797283407988
0 COSMOS 1275 DEB
1 18639U 81053ME  13292.48685450  .00000942  00000-0  11611-2 0  1338
2 18639 083.0668 202.2767 0148838 241.1743 245.9674 13.59801073408297
0 COSMOS 1275 DEB
1 18639U 81053ME  13295.04876454  .00000993  00000-0  12252-2 0  1348
2 18639 083.0667 200.4592 0148739 234.0871 187.3622 13.59805855408648
